     2.11           N: GPS NAV DATA                         RINEX VERSION / TYPE
teqc  2019Feb25     RGS-CENTRE          20220111 11:14:32UTCPGM / RUN BY / DATE
Linux 2.4.21-27.ELsmp|Opteron|gcc -static|Linux 64|=+       COMMENT
    1.1176D-08 -7.4506D-09 -5.9605D-08  1.1921D-07          ION ALPHA
    1.1674D+05 -2.2938D+05 -1.3107D+05  1.0486D+06          ION BETA
   -9.313225746155D-10-2.664535259100D-15   233472     2191 DELTA-UTC: A0,A1,T,W
                                                            END OF HEADER
12 22  1  3 16  0  0.0-1.504006795585D-04-5.684341886081D-12 0.000000000000D+00
    6.000000000000D+01 7.093750000000D+01 4.033382292276D-09 2.410723172868D-01
    3.658235073090D-06 8.516781730577D-03 1.160055398941D-05 5.153629861832D+03
    1.440000000000D+05-9.499490261078D-08 3.089144533006D+00 3.911554813385D-08
    9.712814133809D-01 1.630000000000D+02 1.232543477709D+00-7.681391389355D-09
   -6.485984453001D-10 1.000000000000D+00 2.191000000000D+03 0.000000000000D+00
    2.000000000000D+00 0.000000000000D+00-1.257285475731D-08 6.000000000000D+01
    1.385400000000D+05 4.000000000000D+00
32 22  1  3 16  0  0.0-4.480779170990D-05-5.798028723802D-12 0.000000000000D+00
    4.500000000000D+01-1.340625000000D+01 4.628764235181D-09-1.793790848966D+00
   -6.314367055893D-07 5.371168139391D-03 9.793788194656D-06 5.153755998611D+03
    1.440000000000D+05 1.005828380585D-07 9.156568777900D-01 1.676380634308D-08
    9.576787680562D-01 1.879375000000D+02-2.381191293878D+00-7.766752087828D-09
    8.250343659930D-10 1.000000000000D+00 2.191000000000D+03 0.000000000000D+00
    2.000000000000D+00 0.000000000000D+00 4.656612873077D-10 4.500000000000D+01
    1.392300000000D+05 4.000000000000D+00
 3 22  1  3 15 59 44.0-6.435578688979D-05-1.398348103976D-11 0.000000000000D+00
    1.000000000000D+01-1.534375000000D+02 4.007666935414D-09 3.914692488941D-01
   -8.203089237213D-06 3.844913793728D-03 9.020790457726D-06 5.153713035583D+03
    1.439840000000D+05-2.980232238770D-08-1.234906511727D-01 5.401670932770D-08
    9.724707350581D-01 2.154375000000D+02 9.846408149279D-01-7.797467652969D-09
    2.071514858337D-11 1.000000000000D+00 2.191000000000D+03 0.000000000000D+00
    2.000000000000D+00 0.000000000000D+00 1.862645149231D-09 1.000000000000D+01
    1.401900000000D+05 4.000000000000D+00
 2 22  1  3 16  0  0.0-6.476421840489D-04-1.023181539495D-12 0.000000000000D+00
    7.600000000000D+01-3.790625000000D+01 4.494830084858D-09 1.735175478304D+00
   -2.337619662285D-06 2.065323886927D-02-1.722946763039D-06 5.153668733597D+03
    1.440000000000D+05 3.483146429062D-07-1.247332801218D+00-4.079192876816D-07
    9.646975695831D-01 4.111562500000D+02-1.463198587957D+00-8.329989834655D-09
   -2.500104139373D-11 1.000000000000D+00 2.191000000000D+03 0.000000000000D+00
    2.000000000000D+00 0.000000000000D+00-1.769512891769D-08 7.600000000000D+01
    1.404000000000D+05 4.000000000000D+00
25 22  1  3 16  0  0.0 2.654991112649D-04 5.684341886081D-12 0.000000000000D+00
    6.000000000000D+01 5.850000000000D+01 4.388039922333D-09 1.862565793627D-02
    3.091990947723D-06 1.029566256329D-02 1.140497624874D-05 5.153733671188D+03
    1.440000000000D+05-2.980232238770D-08 3.012992853189D+00 9.685754776001D-08
    9.586659042143D-01 1.581250000000D+02 9.668855581388D-01-7.896400345341D-09
   -7.282446200258D-10 1.000000000000D+00 2.191000000000D+03 0.000000000000D+00
    2.000000000000D+00 0.000000000000D+00 5.587935447693D-09 6.000000000000D+01
    1.434300000000D+05 4.000000000000D+00
 2 22  1  3 18  0  0.0-6.476496346295D-04-1.023181539495D-12 0.000000000000D+00
    7.700000000000D+01-2.253125000000D+01 4.444828002070D-09 2.785273298727D+00
   -1.048669219017D-06 2.065203408711D-02-1.767650246620D-06 5.153672649384D+03
    1.512000000000D+05 3.054738044739D-07-1.247390965378D+00-7.078051567078D-08
    9.646975564169D-01 4.133125000000D+02-1.463114938301D+00-8.133195923113D-09
   -1.171477368163D-10 1.000000000000D+00 2.191000000000D+03 0.000000000000D+00
    2.000000000000D+00 0.000000000000D+00-1.769512891769D-08 7.700000000000D+01
    1.440000000000D+05 4.000000000000D+00
 3 22  1  3 17 59 44.0-6.445683538914D-05-1.409716787748D-11 0.000000000000D+00
    1.700000000000D+01-1.678125000000D+02 3.871232680951D-09 1.441204929799D+00
   -8.724629878998D-06 3.845311119221D-03 8.873641490936D-06 5.153715909958D+03
    1.511840000000D+05-5.029141902924D-08-1.235467175081D-01-1.117587089539D-08
    9.724707511502D-01 2.131250000000D+02 9.850577670614D-01-7.785324290006D-09
    2.142946405177D-12 1.000000000000D+00 2.191000000000D+03 0.000000000000D+00
    2.000000000000D+00 0.000000000000D+00 1.862645149231D-09 1.700000000000D+01
    1.440300000000D+05 4.000000000000D+00
 6 22  1  3 18  0  0.0 1.605963334441D-04 1.068656274583D-11 0.000000000000D+00
    4.900000000000D+01-4.128125000000D+01 4.114814255673D-09 2.997094479781D+00
   -2.089887857437D-06 2.578124986030D-03-8.028000593185D-07 5.153645862579D+03
    1.512000000000D+05 5.960464477539D-08-1.167241771208D+00 1.117587089539D-08
    9.857452039702D-01 4.088437500000D+02-1.013527844017D+00-8.214627886510D-09
   -7.214586230761D-11 1.000000000000D+00 2.191000000000D+03 0.000000000000D+00
    2.000000000000D+00 0.000000000000D+00 4.190951585770D-09 4.900000000000D+01
    1.440600000000D+05 4.000000000000D+00
12 22  1  3 18  0  0.0-1.504411920905D-04-5.684341886081D-12 0.000000000000D+00
    6.100000000000D+01 5.715625000000D+01 3.970522531058D-09 1.291085623470D+00
    2.859160304070D-06 8.518017944880D-03 1.191720366478D-05 5.153633695602D+03
    1.512000000000D+05-1.508742570877D-07 3.089089105966D+00-4.470348358154D-08
    9.712768300586D-01 1.572187500000D+02 1.232733480046D+00-7.638889618986D-09
   -6.268118235141D-10 1.000000000000D+00 2.191000000000D+03 0.000000000000D+00
    2.000000000000D+00 0.000000000000D+00-1.257285475731D-08 6.100000000000D+01
    1.440900000000D+05 4.000000000000D+00
14 22  1  3 18  0  0.0-6.535137072206D-05-5.684341886081D-12 0.000000000000D+00
    5.800000000000D+01 4.121875000000D+01 4.481615248692D-09 1.304376422937D+00
    2.231448888779D-06 1.276447088458D-03 1.164153218269D-05 5.153648244858D+03
    1.512000000000D+05-1.676380634308D-08 3.058493964950D+00 2.235174179077D-08
    9.546808466093D-01 1.504375000000D+02 3.064674371052D+00-7.827826060376D-09
   -6.868143228591D-10 1.000000000000D+00 2.191000000000D+03 0.000000000000D+00
    2.000000000000D+00 0.000000000000D+00-7.916241884232D-09 5.700000000000D+02
    1.440900000000D+05 4.000000000000D+00
17 22  1  3 18  0  0.0 5.564452148974D-04 5.115907697473D-12 0.000000000000D+00
    5.000000000000D+01 1.605937500000D+02 3.974808423868D-09-1.453764883188D+00
    8.579343557358D-06 1.374587800819D-02 5.673617124557D-06 5.153737337112D+03
    1.512000000000D+05-5.960464477539D-08-2.157182513048D+00 3.427267074585D-07
    9.802625220173D-01 2.855625000000D+02-1.512610678078D+00-7.997833141853D-09
    1.910793877949D-10 1.000000000000D+00 2.191000000000D+03 0.000000000000D+00
    2.000000000000D+00 0.000000000000D+00-1.117587089539D-08 5.000000000000D+01
    1.441500000000D+05 4.000000000000D+00
19 22  1  3 18  0  0.0 1.007928512990D-04 5.002220859751D-12 0.000000000000D+00
    7.900000000000D+01 1.474062500000D+02 4.082670059595D-09 9.400108708830D-01
    7.431954145432D-06 8.931119577028D-03 5.120411515236D-06 5.153678146362D+03
    1.512000000000D+05-1.862645149231D-09-2.112248919874D+00-1.825392246246D-07
    9.789503839786D-01 2.925625000000D+02 1.991340057249D+00-8.098551622896D-09
    1.785788670980D-10 1.000000000000D+00 2.191000000000D+03 0.000000000000D+00
    2.000000000000D+00 0.000000000000D+00-1.583248376846D-08 7.900000000000D+01
    1.441800000000D+05 4.000000000000D+00
24 22  1  3 18  0  0.0 2.768496051431D-04 6.821210263297D-13 0.000000000000D+00
    9.200000000000D+01-7.593750000000D+00 5.659878613805D-09 2.926195710151D+00
   -5.401670932770D-07 1.225306675769D-02 4.798173904419D-06 5.153687265396D+03
    1.512000000000D+05-9.872019290924D-08 1.894914367772D+00-1.974403858185D-07
    9.340240995443D-01 2.719687500000D+02 7.979816770827D-01-8.292845430299D-09
   -1.653640309328D-10 1.000000000000D+00 2.191000000000D+03 0.000000000000D+00
    2.800000000000D+00 0.000000000000D+00 2.328306436539D-09 9.200000000000D+01
    1.442400000000D+05 4.000000000000D+00
25 22  1  3 18  0  0.0 2.655396237969D-04 5.684341886081D-12 0.000000000000D+00
    6.200000000000D+01 5.306250000000D+01 4.398754654359D-09 1.068726235960D+00
    2.827495336533D-06 1.029566104989D-02 1.163035631180D-05 5.153734115601D+03
    1.512000000000D+05-9.685754776001D-08 3.012936090505D+00 9.126961231232D-08
    9.586605777296D-01 1.560000000000D+02 9.669286615571D-01-7.877113827695D-09
   -7.332448283046D-10 1.000000000000D+00 2.191000000000D+03 0.000000000000D+00
    2.000000000000D+00 0.000000000000D+00 5.587935447693D-09 6.200000000000D+01
    1.442700000000D+05 4.000000000000D+00
20 22  1  3 17 59 44.0 5.173403769732D-04-1.136868377216D-13 0.000000000000D+00
    3.400000000000D+01-1.586562500000D+02 4.548046587253D-09-2.592248841935D+00
   -8.206814527512D-06 5.358518916182D-03 7.480382919312D-06 5.153729768753D+03
    1.511840000000D+05-1.229345798492D-07-2.765378944104D-01-4.097819328308D-08
    9.415889527993D-01 2.239687500000D+02 3.089808577855D+00-8.103194673441D-09
   -5.821671067396D-11 1.000000000000D+00 2.191000000000D+03 0.000000000000D+00
    2.000000000000D+00 0.000000000000D+00-8.381903171539D-09 3.400000000000D+01
    1.453800000000D+05 4.000000000000D+00
